EUTELSAT 7A             
1 28187U 04008A   25281.24803594  .00000108  00000+0  00000+0 0  9998
2 28187   5.1862  74.9968 0001414 162.4585  89.8148  1.00274347 78825
EUTELSAT 174A           
1 28924U 05052A   25281.24187609  .00000014  00000+0  00000+0 0  9995
2 28924   3.5765  79.6342 0006372 120.9261  77.6567  1.00271515 49804
EUTELSAT HOTBIRD 13B    
1 29270U 06032A   25281.28520962  .00000159  00000+0  00000+0 0  9996
2 29270   1.0055  84.9545 0003874 108.5025 319.4872  1.00272014 44785
EUTELSAT HOTBIRD 13C    
1 33459U 08065A   25281.27619624 -.00000097  00000+0  00000+0 0  9993
2 33459   2.2976  82.1546 0005610 138.4494 243.5134  1.00271362 44825
EUTELSAT 36B            
1 36101U 09065A   25280.57510505  .00000114  00000+0  00000+0 0  9990
2 36101   0.0673  33.8459 0006190 172.7712  67.4083  1.00273295 58172
EUTELSAT KA-SAT 9A      
1 37258U 10069A   25280.21006340  .00000064  00000+0  00000+0 0  9992
2 37258   0.0585 322.4286 0002700 204.4532 293.8838  1.00270047 41479
EUTELSAT 7 WEST A       
1 37816U 11051A   25281.27723625 -.00000058  00000+0  00000+0 0  9997
2 37816   0.0682  20.7682 0006557 177.4361 271.4747  1.00271452 51369
EUTELSAT 16A            
1 37836U 11057A   25281.28182961  .00000106  00000+0  00000+0 0  9991
2 37836   0.0658 351.7644 0005388 208.5955 294.2932  1.00273935  4809
